[{"OBJECT_NAME":"ONEWEB-0371","OBJECT_ID":"2021-090U","EPOCH":"2026-06-16T21:16:41.909088","MEAN_MOTION":13.19724202,"ECCENTRICITY":0.0001879,"INCLINATION":87.9174,"RA_OF_ASC_NODE":305.0261,"ARG_OF_PERICENTER":102.5795,"MEAN_ANOMALY":257.5548,"EPHEMERIS_TYPE":0,"CLASSIFICATION_TYPE":"U","NORAD_CAT_ID":49297,"ELEMENT_SET_NO":999,"REV_AT_EPOCH":22641,"BSTAR":2.8266000000000003e-05,"MEAN_MOTION_DOT":2.4e-07,"MEAN_MOTION_DDOT":0.0},{"OBJECT_NAME":"ONEWEB-0372","OBJECT_ID":"2021-090V","EPOCH":"2026-06-16T20:37:10.514208","MEAN_MOTION":13.20771441,"ECCENTRICITY":0.0001951,"INCLINATION":87.9195,"RA_OF_ASC_NODE":274.5071,"ARG_OF_PERICENTER":101.5834,"MEAN_ANOMALY":258.5518,"EPHEMERIS_TYPE":0,"CLASSIFICATION_TYPE":"U","NORAD_CAT_ID":49298,"ELEMENT_SET_NO":999,"REV_AT_EPOCH":22979,"BSTAR":0.00023685,"MEAN_MOTION_DOT":1.09e-06,"MEAN_MOTION_DDOT":0.0},{"OBJECT_NAME":"ONEWEB-0373","OBJECT_ID":"2021-090W","EPOCH":"2026-06-16T17:35:34.103904","MEAN_MOTION":13.20771468,"ECCENTRICITY":0.000206,"INCLINATION":87.9192,"RA_OF_ASC_NODE":274.5325,"ARG_OF_PERICENTER":100.2254,"MEAN_ANOMALY":259.9112,"EPHEMERIS_TYPE":0,"CLASSIFICATION_TYPE":"U","NORAD_CAT_ID":49299,"ELEMENT_SET_NO":999,"REV_AT_EPOCH":23096,"BSTAR":-3.6961e-06,"MEAN_MOTION_DOT":1.1e-07,"MEAN_MOTION_DDOT":0.0},{"OBJECT_NAME":"ONEWEB-0374","OBJECT_ID":"2021-090X","EPOCH":"2026-06-17T01:01:21.874656","MEAN_MOTION":13.14503101,"ECCENTRICITY":0.0002161,"INCLINATION":87.8969,"RA_OF_ASC_NODE":289.726,"ARG_OF_PERICENTER":84.6465,"MEAN_ANOMALY":275.4911,"EPHEMERIS_TYPE":0,"CLASSIFICATION_TYPE":"U","NORAD_CAT_ID":49300,"ELEMENT_SET_NO":999,"REV_AT_EPOCH":22754,"BSTAR":-0.00029019,"MEAN_MOTION_DOT":-9.5e-07,"MEAN_MOTION_DDOT":0.0},{"OBJECT_NAME":"ONEWEB-0375","OBJECT_ID":"2021-090Y","EPOCH":"2026-06-17T00:34:58.053792","MEAN_MOTION":13.20770301,"ECCENTRICITY":0.0002312,"INCLINATION":87.9194,"RA_OF_ASC_NODE":274.4661,"ARG_OF_PERICENTER":87.3994,"MEAN_ANOMALY":272.7404,"EPHEMERIS_TYPE":0,"CLASSIFICATION_TYPE":"U","NORAD_CAT_ID":49301,"ELEMENT_SET_NO":999,"REV_AT_EPOCH":23050,"BSTAR":-0.00025894,"MEAN_MOTION_DOT":-9.2e-07,"MEAN_MOTION_DDOT":0.0},{"OBJECT_NAME":"ONEWEB-0376","OBJECT_ID":"2021-090Z","EPOCH":"2026-06-17T02:41:57.181632","MEAN_MOTION":13.19724325,"ECCENTRICITY":0.0001717,"INCLINATION":87.9175,"RA_OF_ASC_NODE":304.9811,"ARG_OF_PERICENTER":101.9876,"MEAN_ANOMALY":258.1449,"EPHEMERIS_TYPE":0,"CLASSIFICATION_TYPE":"U","NORAD_CAT_ID":49302,"ELEMENT_SET_NO":999,"REV_AT_EPOCH":22644,"BSTAR":-0.00010311,"MEAN_MOTION_DOT":-2.8e-07,"MEAN_MOTION_DDOT":0.0},{"OBJECT_NAME":"ONEWEB-0377","OBJECT_ID":"2021-090AA","EPOCH":"2026-06-17T03:53:56.467104","MEAN_MOTION":13.20776113,"ECCENTRICITY":0.0002426,"INCLINATION":87.9199,"RA_OF_ASC_NODE":274.442,"ARG_OF_PERICENTER":96.6951,"MEAN_ANOMALY":263.4459,"EPHEMERIS_TYPE":0,"CLASSIFICATION_TYPE":"U","NORAD_CAT_ID":49303,"ELEMENT_SET_NO":999,"REV_AT_EPOCH":23051,"BSTAR":-0.0045361,"MEAN_MOTION_DOT":-1.831e-05,"MEAN_MOTION_DDOT":0.0},{"OBJECT_NAME":"ONEWEB-0378","OBJECT_ID":"2021-090AB","EPOCH":"2026-06-16T17:28:29.345088","MEAN_MOTION":13.20770142,"ECCENTRICITY":0.000197,"INCLINATION":87.9191,"RA_OF_ASC_NODE":274.5321,"ARG_OF_PERICENTER":96.2475,"MEAN_ANOMALY":263.8883,"EPHEMERIS_TYPE":0,"CLASSIFICATION_TYPE":"U","NORAD_CAT_ID":49304,"ELEMENT_SET_NO":999,"REV_AT_EPOCH":22972,"BSTAR":9.7581e-05,"MEAN_MOTION_DOT":5.3e-07,"MEAN_MOTION_DDOT":0.0},{"OBJECT_NAME":"ONEWEB-0379","OBJECT_ID":"2021-090AC","EPOCH":"2026-06-17T00:54:30.569184","MEAN_MOTION":13.14502545,"ECCENTRICITY":0.0001915,"INCLINATION":87.8966,"RA_OF_ASC_NODE":289.7376,"ARG_OF_PERICENTER":96.3234,"MEAN_ANOMALY":263.8113,"EPHEMERIS_TYPE":0,"CLASSIFICATION_TYPE":"U","NORAD_CAT_ID":49305,"ELEMENT_SET_NO":999,"REV_AT_EPOCH":22754,"BSTAR":-2.9383e-05,"MEAN_MOTION_DOT":2e-08,"MEAN_MOTION_DDOT":0.0},{"OBJECT_NAME":"ONEWEB-0380","OBJECT_ID":"2021-090AD","EPOCH":"2026-06-17T02:37:24.992256","MEAN_MOTION":13.19724878,"ECCENTRICITY":0.0002057,"INCLINATION":87.9172,"RA_OF_ASC_NODE":304.9869,"ARG_OF_PERICENTER":97.1908,"MEAN_ANOMALY":262.9459,"EPHEMERIS_TYPE":0,"CLASSIFICATION_TYPE":"U","NORAD_CAT_ID":49306,"ELEMENT_SET_NO":999,"REV_AT_EPOCH":22641,"BSTAR":0.00020975,"MEAN_MOTION_DOT":9.7e-07,"MEAN_MOTION_DDOT":0.0},{"OBJECT_NAME":"ONEWEB-0381","OBJECT_ID":"2021-090AE","EPOCH":"2026-06-17T00:10:43.190112","MEAN_MOTION":13.20772326,"ECCENTRICITY":0.0002081,"INCLINATION":87.9196,"RA_OF_ASC_NODE":274.4761,"ARG_OF_PERICENTER":93.0532,"MEAN_ANOMALY":267.084,"EPHEMERIS_TYPE":0,"CLASSIFICATION_TYPE":"U","NORAD_CAT_ID":49307,"ELEMENT_SET_NO":999,"REV_AT_EPOCH":22980,"BSTAR":6.8096e-05,"MEAN_MOTION_DOT":4.1e-07,"MEAN_MOTION_DDOT":0.0},{"OBJECT_NAME":"ONEWEB-0382","OBJECT_ID":"2021-090AF","EPOCH":"2026-06-16T23:51:18.565632","MEAN_MOTION":13.20770643,"ECCENTRICITY":0.0001976,"INCLINATION":87.9193,"RA_OF_ASC_NODE":274.4729,"ARG_OF_PERICENTER":91.8645,"MEAN_ANOMALY":268.2715,"EPHEMERIS_TYPE":0,"CLASSIFICATION_TYPE":"U","NORAD_CAT_ID":49308,"ELEMENT_SET_NO":999,"REV_AT_EPOCH":22979,"BSTAR":0.0001674,"MEAN_MOTION_DOT":8.1e-07,"MEAN_MOTION_DDOT":0.0},{"OBJECT_NAME":"ONEWEB-0383","OBJECT_ID":"2021-090AG","EPOCH":"2026-06-16T21:06:08.527968","MEAN_MOTION":13.14500806,"ECCENTRICITY":0.000183,"INCLINATION":87.897,"RA_OF_ASC_NODE":289.7606,"ARG_OF_PERICENTER":95.4457,"MEAN_ANOMALY":264.6882,"EPHEMERIS_TYPE":0,"CLASSIFICATION_TYPE":"U","NORAD_CAT_ID":49309,"ELEMENT_SET_NO":999,"REV_AT_EPOCH":22755,"BSTAR":0.00017549000000000002,"MEAN_MOTION_DOT":7.8e-07,"MEAN_MOTION_DDOT":0.0},{"OBJECT_NAME":"ONEWEB-0384","OBJECT_ID":"2021-090AH","EPOCH":"2026-06-17T01:24:03.216384","MEAN_MOTION":13.20812322,"ECCENTRICITY":0.0001947,"INCLINATION":87.9198,"RA_OF_ASC_NODE":274.5039,"ARG_OF_PERICENTER":87.0841,"MEAN_ANOMALY":273.0515,"EPHEMERIS_TYPE":0,"CLASSIFICATION_TYPE":"U","NORAD_CAT_ID":49310,"ELEMENT_SET_NO":999,"REV_AT_EPOCH":22981,"BSTAR":-2.8152e-07,"MEAN_MOTION_DOT":1.3e-07,"MEAN_MOTION_DDOT":0.0},{"OBJECT_NAME":"ONEWEB-0385","OBJECT_ID":"2021-090AJ","EPOCH":"2026-06-16T23:41:37.528224","MEAN_MOTION":13.2077316,"ECCENTRICITY":0.0002,"INCLINATION":87.9193,"RA_OF_ASC_NODE":274.4797,"ARG_OF_PERICENTER":94.5361,"MEAN_ANOMALY":265.6001,"EPHEMERIS_TYPE":0,"CLASSIFICATION_TYPE":"U","NORAD_CAT_ID":49311,"ELEMENT_SET_NO":999,"REV_AT_EPOCH":22977,"BSTAR":-6.3018e-05,"MEAN_MOTION_DOT":-1.3e-07,"MEAN_MOTION_DDOT":0.0},{"OBJECT_NAME":"ONEWEB-0386","OBJECT_ID":"2021-090AK","EPOCH":"2026-06-17T00:05:52.376352","MEAN_MOTION":13.20771844,"ECCENTRICITY":0.0001935,"INCLINATION":87.9199,"RA_OF_ASC_NODE":274.4673,"ARG_OF_PERICENTER":92.9772,"MEAN_ANOMALY":267.1583,"EPHEMERIS_TYPE":0,"CLASSIFICATION_TYPE":"U","NORAD_CAT_ID":49312,"ELEMENT_SET_NO":999,"REV_AT_EPOCH":22979,"BSTAR":8.965800000000001e-05,"MEAN_MOTION_DOT":4.9e-07,"MEAN_MOTION_DDOT":0.0}]